start=new Date('2023-03-08T00:00:00.000Z').valueOf();
sats=[{"OBJECT_ID":"2022-119BC","PERIOD":"95.436","NORAD_CAT_ID":"53936","ECCENTRICITY":"0.00011860","OBJECT_NAME":"STARLINK-4791","TLE_LINE1":"1 53936U 22119BC  23066.86186005  .00008878  00000-0  57487-3 0  9997","MEAN_ELEMENT_THEORY":"SGP4","EPHEMERIS_TYPE":"0","RCS_SIZE":"LARGE","MEAN_MOTION_DOT":"0.00008878","ARG_OF_PERICENTER":"89.7998","ELEMENT_SET_NO":"999","APOAPSIS":"540.503","FILE":"3854072","GP_ID":"227678139","REV_AT_EPOCH":"2631","CENTER_NAME":"EARTH","MEAN_MOTION_DDOT":"0.0000000000000","SITE":"AFETR","SEMIMAJOR_AXIS":"6917.817","INCLINATION":"53.2181","DECAY_DATE":null,"MEAN_ANOMALY":"270.3130","CLASSIFICATION_TYPE":"U","REF_FRAME":"TEME","PERIAPSIS":"538.862","BSTAR":"0.00057487000000","COUNTRY_CODE":"US","TLE_LINE2":"2 53936  53.2181 187.2383 0001186  89.7998 270.3130 15.08860666 26310","EPOCH":"2023-03-07T20:41:04.708320","LAUNCH_DATE":"2022-09-24","RA_OF_ASC_NODE":"187.2383","OBJECT_TYPE":"PAYLOAD","TIME_SYSTEM":"UTC","MEAN_MOTION":"15.08860666"},{"TLE_LINE1":"1 53937U 22119BD  23066.75747349  .00001733  00000-0  12691-3 0  9991","OBJECT_NAME":"STARLINK-4765","ECCENTRICITY":"0.00009670","NORAD_CAT_ID":"53937","OBJECT_ID":"2022-119BD","PERIOD":"95.437","ARG_OF_PERICENTER":"106.0335","MEAN_MOTION_DOT":"0.00001733","RCS_SIZE":"LARGE","EPHEMERIS_TYPE":"0","MEAN_ELEMENT_THEORY":"SGP4","GP_ID":"227676405","APOAPSIS":"540.388","FILE":"3854072","ELEMENT_SET_NO":"999","MEAN_MOTION_DDOT":"0.0000000000000","CENTER_NAME":"EARTH","REV_AT_EPOCH":"2635","INCLINATION":"53.2190","SEMIMAJOR_AXIS":"6917.854","SITE":"AFETR","DECAY_DATE":null,"TLE_LINE2":"2 53937  53.2190 183.0232 0000967 106.0335 254.0763 15.08848545 26359","BSTAR":"0.00012691000000","COUNTRY_CODE":"US","PERIAPSIS":"539.050","REF_FRAME":"TEME","CLASSIFICATION_TYPE":"U","MEAN_ANOMALY":"254.0763","TIME_SYSTEM":"UTC","MEAN_MOTION":"15.08848545","OBJECT_TYPE":"PAYLOAD","RA_OF_ASC_NODE":"183.0232","LAUNCH_DATE":"2022-09-24","EPOCH":"2023-03-07T18:10:45.709536"},{"MEAN_MOTION":"15.08830823","TIME_SYSTEM":"UTC","RA_OF_ASC_NODE":"112.6661","OBJECT_TYPE":"PAYLOAD","EPOCH":"2023-03-07T20:25:52.647456","LAUNCH_DATE":"2022-10-05","TLE_LINE2":"2 53964  53.2149 112.6661 0002601  85.5122 274.6167 15.08830823 23587","PERIAPSIS":"537.974","BSTAR":"0.00041546000000","COUNTRY_CODE":"US","REF_FRAME":"TEME","MEAN_ANOMALY":"274.6167","CLASSIFICATION_TYPE":"U","DECAY_DATE":null,"INCLINATION":"53.2149","SEMIMAJOR_AXIS":"6917.908","SITE":"AFWTR","MEAN_MOTION_DDOT":"0.0000000000000","CENTER_NAME":"EARTH","REV_AT_EPOCH":"2358","GP_ID":"227678141","FILE":"3854072","APOAPSIS":"541.573","ELEMENT_SET_NO":"999","ARG_OF_PERICENTER":"85.5122","MEAN_MOTION_DOT":"0.00006328","EPHEMERIS_TYPE":"0","RCS_SIZE":"LARGE","MEAN_ELEMENT_THEORY":"SGP4","ECCENTRICITY":"0.00026010","OBJECT_NAME":"STARLINK-4633","TLE_LINE1":"1 53964U 22125A   23066.85130379  .00006328  00000-0  41546-3 0  9994","NORAD_CAT_ID":"53964","OBJECT_ID":"2022-125A","PERIOD":"95.438"},{"ECCENTRICITY":"0.00013430","TLE_LINE1":"1 53965U 22125B   23066.84859276  .00038016  00000-0  23934-2 0  9997","OBJECT_NAME":"STARLINK-4578","OBJECT_ID":"2022-125B","PERIOD":"95.437","NORAD_CAT_ID":"53965","MEAN_MOTION_DOT":"0.00038016","ARG_OF_PERICENTER":"114.5242","MEAN_ELEMENT_THEORY":"SGP4","EPHEMERIS_TYPE":"0","RCS_SIZE":"LARGE","FILE":"3854072","APOAPSIS":"540.652","GP_ID":"227676407","ELEMENT_SET_NO":"999","REV_AT_EPOCH":"2358","CENTER_NAME":"EARTH","MEAN_MOTION_DDOT":"0.0000000000000","SEMIMAJOR_AXIS":"6917.858","INCLINATION":"53.2155","SITE":"AFWTR","DECAY_DATE":null,"PERIAPSIS":"538.794","COUNTRY_CODE":"US","BSTAR":"0.00239340000000","TLE_LINE2":"2 53965  53.2155 112.6459 0001343 114.5242 245.5890 15.08847312 23589","MEAN_ANOMALY":"245.5890","CLASSIFICATION_TYPE":"U","REF_FRAME":"TEME","MEAN_MOTION":"15.08847312","TIME_SYSTEM":"UTC","EPOCH":"2023-03-07T20:21:58.414464","LAUNCH_DATE":"2022-10-05","RA_OF_ASC_NODE":"112.6459","OBJECT_TYPE":"PAYLOAD"},{"MEAN_MOTION":"15.08843274","TIME_SYSTEM":"UTC","LAUNCH_DATE":"2022-10-05","EPOCH":"2023-03-07T20:15:15.552864","OBJECT_TYPE":"PAYLOAD","RA_OF_ASC_NODE":"112.6214","BSTAR":"0.00104090000000","COUNTRY_CODE":"US","PERIAPSIS":"538.717","TLE_LINE2":"2 53966  53.2148 112.6214 0001472  87.3499 272.7661 15.08843274 23586","CLASSIFICATION_TYPE":"U","MEAN_ANOMALY":"272.7661","REF_FRAME":"TEME","DECAY_DATE":null,"SEMIMAJOR_AXIS":"6917.870","INCLINATION":"53.2148","SITE":"AFWTR","REV_AT_EPOCH":"2358","MEAN_MOTION_DDOT":"0.0000000000000","CENTER_NAME":"EARTH","FILE":"3854072","APOAPSIS":"540.754","GP_ID":"227676656","ELEMENT_SET_NO":"999","MEAN_MOTION_DOT":"0.00016318","ARG_OF_PERICENTER":"87.3499","MEAN_ELEMENT_THEORY":"SGP4","RCS_SIZE":"LARGE","EPHEMERIS_TYPE":"0","OBJECT_NAME":"STARLINK-4635","TLE_LINE1":"1 53966U 22125C   23066.84393001  .00016318  00000-0  10409-2 0  9991","ECCENTRICITY":"0.00014720","PERIOD":"95.437","OBJECT_ID":"2022-125C","NORAD_CAT_ID":"53966"},{"MEAN_MOTION_DOT":"0.00021477","ARG_OF_PERICENTER":"91.5039","MEAN_ELEMENT_THEORY":"SGP4","EPHEMERIS_TYPE":"0","RCS_SIZE":"LARGE","ECCENTRICITY":"0.00017380","TLE_LINE1":"1 53967U 22125D   23066.64152143  .00021477  00000-0  13627-2 0  9997","OBJECT_NAME":"STARLINK-4634","OBJECT_ID":"2022-125D","PERIOD":"95.436","NORAD_CAT_ID":"53967","REV_AT_EPOCH":"2355","CENTER_NAME":"EARTH","MEAN_MOTION_DDOT":"0.0000000000000","FILE":"3854072","APOAPSIS":"540.889","GP_ID":"227677903","ELEMENT_SET_NO":"999","DECAY_DATE":null,"SEMIMAJOR_AXIS":"6917.822","INCLINATION":"53.2163","SITE":"AFWTR","MEAN_MOTION":"15.08859128","TIME_SYSTEM":"UTC","EPOCH":"2023-03-07T15:23:47.451552","LAUNCH_DATE":"2022-10-05","RA_OF_ASC_NODE":"113.4884","OBJECT_TYPE":"PAYLOAD","PERIAPSIS":"538.485","BSTAR":"0.00136270000000","COUNTRY_CODE":"US","TLE_LINE2":"2 53967  53.2163 113.4884 0001738  91.5039 268.6152 15.08859128 23559","MEAN_ANOMALY":"268.6152","CLASSIFICATION_TYPE":"U","REF_FRAME":"TEME"},{"ELEMENT_SET_NO":"999","GP_ID":"227677642","FILE":"3854072","APOAPSIS":"540.320","MEAN_MOTION_DDOT":"0.0000000000000","CENTER_NAME":"EARTH","REV_AT_EPOCH":"2354","NORAD_CAT_ID":"53968","OBJECT_ID":"2022-125E","PERIOD":"95.437","TLE_LINE1":"1 53968U 22125E   23066.56422930  .00035338  00000-0  22271-2 0  9999","OBJECT_NAME":"STARLINK-4629","ECCENTRICITY":"0.00008490","RCS_SIZE":"LARGE","EPHEMERIS_TYPE":"0","MEAN_ELEMENT_THEORY":"SGP4","ARG_OF_PERICENTER":"84.6341","MEAN_MOTION_DOT":"0.00035338","REF_FRAME":"TEME","CLASSIFICATION_TYPE":"U","MEAN_ANOMALY":"275.4748","TLE_LINE2":"2 53968  53.2176 113.7198 0000849  84.6341 275.4748 15.08844263 23546","COUNTRY_CODE":"US","BSTAR":"0.00222710000000","PERIAPSIS":"539.145","OBJECT_TYPE":"PAYLOAD","RA_OF_ASC_NODE":"113.7198","LAUNCH_DATE":"2022-10-05","EPOCH":"2023-03-07T13:32:29.411520","TIME_SYSTEM":"UTC","MEAN_MOTION":"15.08844263","SITE":"AFWTR","INCLINATION":"53.2176","SEMIMAJOR_AXIS":"6917.867","DECAY_DATE":null},{"PERIOD":"95.437","OBJECT_ID":"2022-125F","NORAD_CAT_ID":"53969","ECCENTRICITY":"0.00012240","OBJECT_NAME":"STARLINK-4468","TLE_LINE1":"1 53969U 22125F   23066.57159429  .00007118  00000-0  46469-3 0  9992","MEAN_ELEMENT_THEORY":"SGP4","EPHEMERIS_TYPE":"0","RCS_SIZE":"LARGE","MEAN_MOTION_DOT":"0.00007118","ARG_OF_PERICENTER":"96.7790","ELEMENT_SET_NO":"999","APOAPSIS":"540.557","FILE":"3854072","GP_ID":"227676907","REV_AT_EPOCH":"2354","CENTER_NAME":"EARTH","MEAN_MOTION_DDOT":"0.0000000000000","SITE":"AFWTR","SEMIMAJOR_AXIS":"6917.845","INCLINATION":"53.2170","DECAY_DATE":null,"MEAN_ANOMALY":"263.3342","CLASSIFICATION_TYPE":"U","REF_FRAME":"TEME","PERIAPSIS":"538.863","BSTAR":"0.00046469000000","COUNTRY_CODE":"US","TLE_LINE2":"2 53969  53.2170 113.7618 0001224  96.7790 263.3342 15.08851594 23549","LAUNCH_DATE":"2022-10-05","EPOCH":"2023-03-07T13:43:05.746656","RA_OF_ASC_NODE":"113.7618","OBJECT_TYPE":"PAYLOAD","TIME_SYSTEM":"UTC","MEAN_MOTION":"15.08851594"},{"ELEMENT_SET_NO":"999","APOAPSIS":"540.921","FILE":"3854072","GP_ID":"227677156","REV_AT_EPOCH":"2364","MEAN_MOTION_DDOT":"0.0000000000000","CENTER_NAME":"EARTH","OBJECT_ID":"2022-125G","PERIOD":"95.437","NORAD_CAT_ID":"53970","ECCENTRICITY":"0.00017080","TLE_LINE1":"1 53970U 22125G   23066.80673796  .00001421  00000-0  10737-3 0  9998","OBJECT_NAME":"STARLINK-4567","MEAN_ELEMENT_THEORY":"SGP4","EPHEMERIS_TYPE":"0","RCS_SIZE":"LARGE","MEAN_MOTION_DOT":"0.00001421","ARG_OF_PERICENTER":"213.9951","MEAN_ANOMALY":"146.0932","CLASSIFICATION_TYPE":"U","REF_FRAME":"TEME","PERIAPSIS":"538.558","COUNTRY_CODE":"US","BSTAR":"0.00010737000000","TLE_LINE2":"2 53970  53.2188 108.1084 0001708 213.9951 146.0932 15.08841986 23641","EPOCH":"2023-03-07T19:21:42.159744","LAUNCH_DATE":"2022-10-05","RA_OF_ASC_NODE":"108.1084","OBJECT_TYPE":"PAYLOAD","MEAN_MOTION":"15.08841986","TIME_SYSTEM":"UTC","SITE":"AFWTR","SEMIMAJOR_AXIS":"6917.874","INCLINATION":"53.2188","DECAY_DATE":null},{"DECAY_DATE":null,"SITE":"AFWTR","INCLINATION":"53.2172","SEMIMAJOR_AXIS":"6917.842","RA_OF_ASC_NODE":"113.7390","OBJECT_TYPE":"PAYLOAD","EPOCH":"2023-03-07T13:37:47.964864","LAUNCH_DATE":"2022-10-05","MEAN_MOTION":"15.08852723","TIME_SYSTEM":"UTC","REF_FRAME":"TEME","MEAN_ANOMALY":"258.9076","CLASSIFICATION_TYPE":"U","TLE_LINE2":"2 53971  53.2172 113.7390 0001322 101.2064 258.9076 15.08852723 23545","PERIAPSIS":"538.792","BSTAR":"0.00258290000000","COUNTRY_CODE":"US","EPHEMERIS_TYPE":"0","RCS_SIZE":"LARGE","MEAN_ELEMENT_THEORY":"SGP4","ARG_OF_PERICENTER":"101.2064","MEAN_MOTION_DOT":"0.00041073","NORAD_CAT_ID":"53971","PERIOD":"95.437","OBJECT_ID":"2022-125H","ECCENTRICITY":"0.00013220","TLE_LINE1":"1 53971U 22125H   23066.56791626  .00041073  00000-0  25829-2 0  9999","OBJECT_NAME":"STARLINK-4639","CENTER_NAME":"EARTH","MEAN_MOTION_DDOT":"0.0000000000000","REV_AT_EPOCH":"2354","ELEMENT_SET_NO":"999","GP_ID":"227677404","FILE":"3854072","APOAPSIS":"540.621"}];
